{
  "type": "FeatureCollection",
  "features": [
    {
      "type": "Feature",
      "properties": {
        "norad_id": 41866,
        "name": "GOES 16",
        "group": "weather",
        "lat": 0.051586691091600814,
        "lon": -178.57915623477786,
        "alt_km": 35784.095421263024,
        "timestamp": "2025-12-13T13:34:34.721474+00:00",
        "meta_object_name": "GOES 16",
        "meta_object_id": "2016-071A",
        "meta_epoch": "2025-12-12T23:15:15.859584",
        "meta_mean_motion": 1.00271546,
        "meta_eccentricity": 0.00032331,
        "meta_inclination": 0.0639,
        "meta_ra_of_asc_node": 105.1798,
        "meta_arg_of_pericenter": 157.6818,
        "meta_mean_anomaly": 63.1874,
        "meta_ephemeris_type": 0,
        "meta_classification_type": "U",
        "meta_norad_cat_id": 41866,
        "meta_element_set_no": 999,
        "meta_rev_at_epoch": 3323,
        "meta_bstar": 0,
        "meta_mean_motion_dot": -7.8e-07,
        "meta_mean_motion_ddot": 0,
        "tle_line1": "1 41866U 16071A   25346.96893356 -.00000078  00000+0  00000+0 0  9993",
        "tle_line2": "2 41866   0.0639 105.1798 0003233 157.6818  63.1874  1.00271546 33239"
      },
      "geometry": {
        "type": "Point",
        "coordinates": [
          -178.57915623477786,
          0.051586691091600814
        ]
      }
    },
    {
      "type": "Feature",
      "properties": {
        "norad_id": 41882,
        "name": "FENGYUN 4A",
        "group": "weather",
        "lat": -0.9735194489723916,
        "lon": 49.97032855469491,
        "alt_km": 35807.32204460505,
        "timestamp": "2025-12-13T13:34:34.721485+00:00",
        "meta_object_name": "FENGYUN 4A",
        "meta_object_id": "2016-077A",
        "meta_epoch": "2025-12-12T22:37:46.187616",
        "meta_mean_motion": 1.00269597,
        "meta_eccentricity": 0.00048299,
        "meta_inclination": 1.85,
        "meta_ra_of_asc_node": 82.3882,
        "meta_arg_of_pericenter": 145.9325,
        "meta_mean_anomaly": 316.8328,
        "meta_ephemeris_type": 0,
        "meta_classification_type": "U",
        "meta_norad_cat_id": 41882,
        "meta_element_set_no": 999,
        "meta_rev_at_epoch": 3306,
        "meta_bstar": 0,
        "meta_mean_motion_dot": -3.44e-06,
        "meta_mean_motion_ddot": 0,
        "tle_line1": "1 41882U 16077A   25346.94289569 -.00000344  00000+0  00000+0 0  9996",
        "tle_line2": "2 41882   1.8500  82.3882 0004829 145.9325 316.8328  1.00269597 33064"
      },
      "geometry": {
        "type": "Point",
        "coordinates": [
          49.97032855469491,
          -0.9735194489723916
        ]
      }
    },
    {
      "type": "Feature",
      "properties": {
        "norad_id": 41884,
        "name": "CYGFM05",
        "group": "weather",
        "lat": -32.100538177416226,
        "lon": -22.141578560651762,
        "alt_km": 426.7308527380701,
        "timestamp": "2025-12-13T13:34:34.721495+00:00",
        "meta_object_name": "CYGFM05",
        "meta_object_id": "2016-078A",
        "meta_epoch": "2025-12-12T20:50:25.759680",
        "meta_mean_motion": 15.47640667,
        "meta_eccentricity": 0.00101119,
        "meta_inclination": 34.9605,
        "meta_ra_of_asc_node": 46.2904,
        "meta_arg_of_pericenter": 184.7498,
        "meta_mean_anomaly": 175.3129,
        "meta_ephemeris_type": 0,
        "meta_classification_type": "U",
        "meta_norad_cat_id": 41884,
        "meta_element_set_no": 999,
        "meta_rev_at_epoch": 49978,
        "meta_bstar": 0.00048911259,
        "meta_mean_motion_dot": 0.00026112,
        "meta_mean_motion_ddot": 0,
        "tle_line1": "1 41884U 16078A   25346.86835370  .00026112  00000+0  48911-3 0  9994",
        "tle_line2": "2 41884  34.9605  46.2904 0010111 184.7498 175.3129 15.47640667499785"
      },
      "geometry": {
        "type": "Point",
        "coordinates": [
          -22.141578560651762,
          -32.100538177416226
        ]
      }
    },
    {
      "type": "Feature",
      "properties": {
        "norad_id": 41885,
        "name": "CYGFM04",
        "group": "weather",
        "lat": 0.4013824652108776,
        "lon": -164.08595739082568,
        "alt_km": 409.44331969895666,
        "timestamp": "2025-12-13T13:34:34.721505+00:00",
        "meta_object_name": "CYGFM04",
        "meta_object_id": "2016-078B",
        "meta_epoch": "2025-12-12T12:04:48.995904",
        "meta_mean_motion": 15.50339744,
        "meta_eccentricity": 0.0009449,
        "meta_inclination": 34.9355,
        "meta_ra_of_asc_node": 23.459,
        "meta_arg_of_pericenter": 208.6589,
        "meta_mean_anomaly": 151.3614,
        "meta_ephemeris_type": 0,
        "meta_classification_type": "U",
        "meta_norad_cat_id": 41885,
        "meta_element_set_no": 999,
        "meta_rev_at_epoch": 49990,
        "meta_bstar": 0.00049905831,
        "meta_mean_motion_dot": 0.00029314,
        "meta_mean_motion_ddot": 0,
        "tle_line1": "1 41885U 16078B   25346.50334486  .00029314  00000+0  49906-3 0  9990",
        "tle_line2": "2 41885  34.9355  23.4590 0009449 208.6589 151.3614 15.50339744499907"
      },
      "geometry": {
        "type": "Point",
        "coordinates": [
          -164.08595739082568,
          0.4013824652108776
        ]
      }
    },
    {
      "type": "Feature",
      "properties": {
        "norad_id": 41886,
        "name": "CYGFM02",
        "group": "weather",
        "lat": -9.339775277800896,
        "lon": -151.5719858239327,
        "alt_km": 404.5560768282121,
        "timestamp": "2025-12-13T13:34:34.721515+00:00",
        "meta_object_name": "CYGFM02",
        "meta_object_id": "2016-078C",
        "meta_epoch": "2025-12-12T12:01:45.818400",
        "meta_mean_motion": 15.51717368,
        "meta_eccentricity": 0.00111023,
        "meta_inclination": 34.9444,
        "meta_ra_of_asc_node": 21.8021,
        "meta_arg_of_pericenter": 208.1601,
        "meta_mean_anomaly": 151.8522,
        "meta_ephemeris_type": 0,
        "meta_classification_type": "U",
        "meta_norad_cat_id": 41886,
        "meta_element_set_no": 999,
        "meta_rev_at_epoch": 50003,
        "meta_bstar": 0.00050154244,
        "meta_mean_motion_dot": 0.00030979,
        "meta_mean_motion_ddot": 0,
        "tle_line1": "1 41886U 16078C   25346.50122475  .00030979  00000+0  50154-3 0  9990",
        "tle_line2": "2 41886  34.9444  21.8021 0011102 208.1601 151.8522 15.51717368500030"
      },
      "geometry": {
        "type": "Point",
        "coordinates": [
          -151.5719858239327,
          -9.339775277800896
        ]
      }
    },
    {
      "type": "Feature",
      "properties": {
        "norad_id": 41887,
        "name": "CYGFM01",
        "group": "weather",
        "lat": -12.525259673708343,
        "lon": 25.527569259178176,
        "alt_km": 428.0889788058912,
        "timestamp": "2025-12-13T13:34:34.721525+00:00",
        "meta_object_name": "CYGFM01",
        "meta_object_id": "2016-078D",
        "meta_epoch": "2025-12-12T14:27:32.810976",
        "meta_mean_motion": 15.48206024,
        "meta_eccentricity": 0.00096309,
        "meta_inclination": 34.9433,
        "meta_ra_of_asc_node": 50.3785,
        "meta_arg_of_pericenter": 173.9966,
        "meta_mean_anomaly": 186.0873,
        "meta_ephemeris_type": 0,
        "meta_classification_type": "U",
        "meta_norad_cat_id": 41887,
        "meta_element_set_no": 999,
        "meta_rev_at_epoch": 49968,
        "meta_bstar": 0.00048455883,
        "meta_mean_motion_dot": 0.00026383,
        "meta_mean_motion_ddot": 0,
        "tle_line1": "1 41887U 16078D   25346.60246309  .00026383  00000+0  48456-3 0  9991",
        "tle_line2": "2 41887  34.9433  50.3785 0009630 173.9966 186.0873 15.48206024499684"
      },
      "geometry": {
        "type": "Point",
        "coordinates": [
          25.527569259178176,
          -12.525259673708343
        ]
      }
    },
    {
      "type": "Feature",
      "properties": {
        "norad_id": 41888,
        "name": "CYGFM08",
        "group": "weather",
        "lat": 16.47593607346392,
        "lon": 52.11974278290869,
        "alt_km": 422.60934649092815,
        "timestamp": "2025-12-13T13:34:34.721534+00:00",
        "meta_object_name": "CYGFM08",
        "meta_object_id": "2016-078E",
        "meta_epoch": "2025-12-12T12:42:25.890912",
        "meta_mean_motion": 15.49405838,
        "meta_eccentricity": 0.00115306,
        "meta_inclination": 34.9464,
        "meta_ra_of_asc_node": 33.8502,
        "meta_arg_of_pericenter": 197.3189,
        "meta_mean_anomaly": 162.7141,
        "meta_ephemeris_type": 0,
        "meta_classification_type": "U",
        "meta_norad_cat_id": 41888,
        "meta_element_set_no": 999,
        "meta_rev_at_epoch": 49990,
        "meta_bstar": 0.00049707075,
        "meta_mean_motion_dot": 0.00028264,
        "meta_mean_motion_ddot": 0,
        "tle_line1": "1 41888U 16078E   25346.52946633  .00028264  00000+0  49707-3 0  9990",
        "tle_line2": "2 41888  34.9464  33.8502 0011530 197.3189 162.7141 15.49405838499900"
      },
      "geometry": {
        "type": "Point",
        "coordinates": [
          52.11974278290869,
          16.47593607346392
        ]
      }
    }
  ]
}